ONEWEB-0327             
1 49196U 21083L   23340.93901120  .00000082  00000+0  17529-3 0  9996
2 49196  87.9202 159.1487 0001791  72.4650 287.6677 13.18689246108343
ONEWEB-0328             
1 49197U 21083M   23340.49191960 -.00000206  00000+0 -60022-3 0  9997
2 49197  87.8971 144.0675 0001762  95.9560 264.1770 13.13476135109640
ONEWEB-0331             
1 49198U 21083N   23340.50378000  .00000051  00000+0  96731-4 0  9995
2 49198  87.9152 159.2142 0001691  82.5535 277.5790 13.18687815108277
ONEWEB-0333             
1 49199U 21083P   23340.48716332 -.00000207  00000+0 -60116-3 0  9999
2 49199  87.8987 144.0740 0001349  99.6414 260.4868 13.13473155109659
ONEWEB-0334             
1 49200U 21083Q   23340.33265717  .00000045  00000+0  78078-4 0  9997
2 49200  87.9188  98.3978 0000947 113.3189 246.8044 13.20774820114848
ONEWEB-0335             
1 49201U 21083R   23340.93947049 -.00000082  00000+0 -25991-3 0  9997
2 49201  87.8986 143.9734 0001549  85.2270 274.9036 13.13474161109729
ONEWEB-0336             
1 49202U 21083S   23340.90931397  .00000395  00000+0  10470-2 0  9994
2 49202  87.8989 143.9779 0001309  91.6537 268.4742 13.13469859109712
ONEWEB-0337             
1 49203U 21083T   23340.99445519  .00031618  00000+0  86757-1 0  9992
2 49203  87.8991 143.9596 0001552 108.4857 251.6440 13.13068931111027
